OBJECT_NAME,OBJECT_ID,EPOCH,MEAN_MOTION,ECCENTRICITY,INCLINATION,RA_OF_ASC_NODE,ARG_OF_PERICENTER,MEAN_ANOMALY,EPHEMERIS_TYPE,CLASSIFICATION_TYPE,NORAD_CAT_ID,ELEMENT_SET_NO,REV_AT_EPOCH,BSTAR,MEAN_MOTION_DOT,MEAN_MOTION_DDOT
NVS-01 (IRNSS-1J),2023-076A,2026-06-11T13:51:35.777088,1.00267598,.0003108,2.1800,244.6164,38.1889,314.5701,0,U,56759,999,1105,0,-.317E-5,0
NUSANTARA TIGA (SATRIA),2023-086A,2026-06-11T13:56:18.687840,1.00268753,.00034082,0.0359,346.9063,1.0050,267.0947,0,U,57045,999,970,0,-.218E-5,0
H2SAT (HEINRICH HERTZ),2023-093A,2026-06-11T08:06:57.778272,1.00264819,.00003698,0.0582,109.1133,45.1221,227.8899,0,U,57213,999,1085,0,.18E-6,0
SYRACUSE 4B,2023-093B,2026-06-11T08:04:57.969984,1.00269023,.00003596,0.0223,359.6998,223.6315,151.1677,0,U,57214,999,690,0,0,0
JUPITER 3 (ECHOSTAR 24),2023-108A,2026-06-10T13:05:19.428000,1.00269714,.0001268,0.0208,342.6567,96.2187,281.1389,0,U,57479,999,1058,0,0,0
GALAXY 37 (G-37),2023-112A,2026-06-11T14:21:10.130688,1.00270588,.00018291,0.0167,11.7089,67.1784,269.3503,0,U,57493,999,1048,0,.65E-6,0
LUDI TANCE-4 01A,2023-120A,2026-06-11T13:40:20.498016,1.00269904,.00009114,15.1055,194.1091,71.7166,288.8863,0,U,57624,999,1049,0,-.152E-5,0
ZHONGXING-6E,2023-172A,2026-06-11T16:24:23.391648,1.00267442,.0002317,0.0229,74.6416,7.8578,179.1235,0,U,58253,999,960,0,-.345E-5,0
YAOGAN-41,2023-197A,2026-06-11T15:32:30.299424,1.00273280,.00140484,3.1395,313.0454,193.5837,109.6870,0,U,58582,999,926,0,-.346E-5,0
OVZON-3,2024-003A,2026-06-10T21:25:11.606880,1.00273134,.00002842,0.0096,343.8144,329.5993,326.8209,0,U,58698,999,738,0,0,0
INSAT-3DS,2024-033A,2026-06-11T13:38:05.714016,1.00272237,.00010912,0.0391,129.9266,304.6052,111.9984,0,U,58990,999,4701,0,-.139E-5,0
MERAH PUTIH 2,2024-035A,2026-06-11T08:38:54.456864,1.00267140,.00009567,0.0202,0.0404,82.5281,59.8062,0,U,58995,999,853,0,0,0
TJS-11,2024-037A,2026-06-09T19:10:56.423424,1.00155909,.0006664,4.2095,326.9725,186.9347,143.4309,0,U,59020,999,850,0,-.338E-5,0
HULIANWAN GAOGUI-01 (HG-01),2024-040A,2026-06-10T13:27:03.568608,1.00273744,.00026487,0.0661,329.5263,64.3082,100.4566,0,U,59069,999,726,0,.173E-5,0
EUTELSAT 36D,2024-059A,2026-06-11T13:24:58.126176,1.00270611,.00003178,0.0181,16.0011,178.1932,302.8315,0,U,59346,999,809,0,.172E-5,0
PAKSAT-MM1,2024-104A,2026-06-11T13:25:35.565888,1.00273288,.0001864,0.0380,102.2860,327.5659,69.6360,0,U,59915,999,747,0,.17E-5,0
ASTRA 1P (SES-24),2024-115A,2026-06-11T06:29:24.618048,1.00266982,.00010892,0.0579,0.3954,358.9978,16.7936,0,U,60086,999,713,0,.136E-5,0
GOES 19,2024-119A,2026-06-11T12:53:17.720160,1.00270767,.00004781,0.0467,149.5263,23.3707,205.1244,0,U,60133,999,690,0,-.231E-5,0
ZHONGXING-3A,2024-122A,2026-06-10T12:03:45.892800,1.00270239,.0001282,0.0455,133.0053,338.2817,70.1058,0,U,60179,999,724,0,-.296E-5,0
TURKSAT 6A,2024-127A,2026-06-11T13:26:42.957888,1.00274178,.0001665,0.0538,218.7252,278.4433,6.4409,0,U,60233,999,696,0,.163E-5,0
ZHONGXING-4A,2024-151A,2026-06-11T13:48:28.575936,1.00267845,.00004486,1.3297,270.9096,227.2959,87.0306,0,U,60606,999,669,0,-.345E-5,0
HULIANWAN GAOGUI-03 (HG-03),2024-181A,2026-06-10T23:11:29.074272,1.00274617,.00010526,0.0449,358.0168,92.9248,79.0887,0,U,61503,999,676,0,-.224E-5,0
DSN-3 (KIRAMEKI-3),2024-198A,2026-06-11T13:55:48.736416,1.00269189,.00009245,0.0173,318.9993,206.2667,87.6658,0,U,61733,999,586,0,-.234E-5,0
KOREASAT 6A,2024-206A,2026-06-11T13:47:51.136224,1.00270748,.00007302,0.0136,285.3677,134.0644,163.4609,0,U,61910,999,578,0,-.345E-5,0
OPTUS-X (ADS-01),2024-212A,2026-06-11T12:16:36.237792,1.00270328,.0001633,0.0177,337.2161,145.9659,117.2283,0,U,62006,999,570,0,-.127E-5,0
GSAT-N2 (GSAT-20),2024-214A,2026-06-11T13:34:04.752192,1.00269112,.00018989,0.0159,85.3297,347.1873,98.9080,0,U,62028,999,584,0,-.2E-7,0
SXM-9,2024-234A,2026-06-11T08:13:38.487648,1.00269811,.0004756,0.0141,331.7210,340.5197,345.7028,0,U,62259,999,551,0,-.188E-5,0
TJS-12,2024-246A,2026-06-11T13:56:26.176128,1.00271151,.00020905,0.6835,298.5724,83.2284,233.7977,0,U,62374,999,550,0,-.214E-5,0
NUVIEW ALPHA,2024-252B,2026-06-11T05:54:30.086784,1.00273576,.00010958,0.0621,39.7430,358.9977,226.4014,0,U,62455,999,376,0,-.199E-5,0
