NVS-01 (IRNSS-1J)       
1 56759U 23076A   26162.57749742 -.00000317  00000+0  00000+0 0  9992
2 56759   2.1800 244.6164 0003108  38.1889 314.5701  1.00267598 11057
NUSANTARA TIGA (SATRIA) 
1 57045U 23086A   26162.58077185 -.00000218  00000+0  00000+0 0  9998
2 57045   0.0359 346.9063 0003408   1.0050 267.0947  1.00268753  9705
H2SAT (HEINRICH HERTZ)  
1 57213U 23093A   26162.33816873  .00000018  00000+0  00000+0 0  9998
2 57213   0.0582 109.1133 0000369  45.1221 227.8899  1.00264819 10856
SYRACUSE 4B             
1 57214U 23093B   26162.33678206  .00000000  00000+0  00000+0 0  9996
2 57214   0.0223 359.6998 0000359 223.6315 151.1677  1.00269023  6902
JUPITER 3 (ECHOSTAR 24) 
1 57479U 23108A   26161.54536375  .00000000  00000+0  00000+0 0  9998
2 57479   0.0208 342.6567 0001268  96.2187 281.1389  1.00269714 10583
GALAXY 37 (G-37)        
1 57493U 23112A   26162.59803392  .00000065  00000+0  00000+0 0  9992
2 57493   0.0167  11.7089 0001829  67.1784 269.3503  1.00270588 10485
LUDI TANCE-4 01A        
1 57624U 23120A   26162.56968169 -.00000152  00000+0  00000+0 0  9996
2 57624  15.1055 194.1091 0000911  71.7166 288.8863  1.00269904 10495
ZHONGXING-6E            
1 58253U 23172A   26162.68360407 -.00000345  00000+0  00000+0 0  9990
2 58253   0.0229  74.6416 0002317   7.8578 179.1235  1.00267442  9603
YAOGAN-41               
1 58582U 23197A   26162.64757291 -.00000346  00000+0  00000+0 0  9990
2 58582   3.1395 313.0454 0014048 193.5837 109.6870  1.00273280  9265
OVZON-3                 
1 58698U 24003A   26161.89249545  .00000000  00000+0  00000+0 0  9995
2 58698   0.0096 343.8144 0000284 329.5993 326.8209  1.00273134  7383
INSAT-3DS               
1 58990U 24033A   26162.56812169 -.00000139  00000+0  00000+0 0  9990
2 58990   0.0391 129.9266 0001091 304.6052 111.9984  1.00272237 47011
MERAH PUTIH 2           
1 58995U 24035A   26162.36035251  .00000000  00000+0  00000+0 0  9990
2 58995   0.0202   0.0404 0000956  82.5281  59.8062  1.00267140  8533
TJS-11                  
1 59020U 24037A   26160.79926416 -.00000338  00000+0  00000+0 0  9994
2 59020   4.2095 326.9725 0006664 186.9347 143.4309  1.00155909  8509
HULIANWAN GAOGUI-01 (H*)
1 59069U 24040A   26161.56045797  .00000173  00000+0  00000+0 0  9997
2 59069   0.0661 329.5263 0002648  64.3082 100.4566  1.00273744  7262
EUTELSAT 36D            
1 59346U 24059A   26162.55900609  .00000172  00000+0  00000+0 0  9996
2 59346   0.0181  16.0011 0000317 178.1932 302.8315  1.00270611  8097
PAKSAT-MM1              
1 59915U 24104A   26162.55943942  .00000170  00000+0  00000+0 0  9994
2 59915   0.0380 102.2860 0001864 327.5659  69.6360  1.00273288  7476
ASTRA 1P (SES-24)       
1 60086U 24115A   26162.27042382  .00000136  00000+0  00000+0 0  9996
2 60086   0.0579   0.3954 0001089 358.9978  16.7936  1.00266982  7138
GOES 19                 
1 60133U 24119A   26162.53701065 -.00000231  00000+0  00000+0 0  9999
2 60133   0.0467 149.5263 0000478  23.3707 205.1244  1.00270767  6906
ZHONGXING-3A            
1 60179U 24122A   26161.50261450 -.00000296  00000+0  00000+0 0  9999
2 60179   0.0455 133.0053 0001282 338.2817  70.1058  1.00270239  7247
TURKSAT 6A              
1 60233U 24127A   26162.56021942  .00000163  00000+0  00000+0 0  9994
2 60233   0.0538 218.7252 0001665 278.4433   6.4409  1.00274178  6962
ZHONGXING-4A            
1 60606U 24151A   26162.57533074 -.00000345  00000+0  00000+0 0  9993
2 60606   1.3297 270.9096 0000448 227.2959  87.0306  1.00267845  6695
HULIANWAN GAOGUI-03 (H*)
1 61503U 24181A   26161.96630873 -.00000224  00000+0  00000+0 0  9996
2 61503   0.0449 358.0168 0001052  92.9248  79.0887  1.00274617  6763
DSN-3 (KIRAMEKI-3)      
1 61733U 24198A   26162.58042519 -.00000234  00000+0  00000+0 0  9993
2 61733   0.0173 318.9993 0000924 206.2667  87.6658  1.00269189  5864
KOREASAT 6A             
1 61910U 24206A   26162.57489741 -.00000345  00000+0  00000+0 0  9994
2 61910   0.0136 285.3677 0000730 134.0644 163.4609  1.00270748  5787
OPTUS-X (ADS-01)        
1 62006U 24212A   26162.51153053 -.00000127  00000+0  00000+0 0  9994
2 62006   0.0177 337.2161 0001633 145.9659 117.2283  1.00270328  5705
GSAT-N2 (GSAT-20)       
1 62028U 24214A   26162.56533278 -.00000002  00000+0  00000+0 0  9998
2 62028   0.0159  85.3297 0001898 347.1873  98.9080  1.00269112  5841
SXM-9                   
1 62259U 24234A   26162.34280657 -.00000188  00000+0  00000+0 0  9997
2 62259   0.0141 331.7210 0004756 340.5197 345.7028  1.00269811  5518
TJS-12                  
1 62374U 24246A   26162.58085852 -.00000214  00000+0  00000+0 0  9994
2 62374   0.6835 298.5724 0002090  83.2284 233.7977  1.00271151  5507
NUVIEW ALPHA            
1 62455U 24252B   26162.24618156 -.00000199  00000+0  00000+0 0  9995
2 62455   0.0621  39.7430 0001095 358.9977 226.4014  1.00273576  3768
